{"type": "FeatureCollection", "features": [{"type": "Feature", "id": 3293451617, "geometry": {"type": "Point", "coordinates": [14.478949, 50.074603]}, "properties": {"title": "Fakultní nemocnice Královské Vinohrady, Ruská, 100 42 Prague, Czechia", "description": "Zřizovatel: Ministerstvo zdravotnictví Počet lůžek: 1038 \nPočet lékařů: 460 \nPočet sester: 1234 \nPočet hospitalizací: 52276 \nPočet ambulantních vyšetření: /", "group": 1020388458, "marker-color": "#444444", "marker-symbol": "hotel"}}, {"type": "Feature", "id": 1779035300, "geometry": {"type": "Point", "coordinates": [14.465115, 50.115647]}, "properties": {"title": "Nemocnice Na Bulovce, Budínova, 180 00 Prague, Czechia", "description": "Zřizovatel: Ministerstvo zdravotnictví Počet lůžek: 995 \nPočet lékařů: 475 \nPočet sester: 824 \nPočet hospitalizací: /\nPočet ambulantních vyšetření: 574096", "group": 1020388458, "marker-color": "#444444", "marker-symbol": "hotel"}}, {"type": "Feature", "id": 3910304137, "geometry": {"type": "Point", "coordinates": [14.341298, 50.075313]}, "properties": {"title": "Nemocnice Motol, Kukulova, 162 06 Prague, Czechia", "description": "Zřizovatel: Ministerstvo zdravotnictví Počet lůžek: 2199 \nPočet lékařů: 1279 \nPočet sester: 1989 \nPočet hospitalizací: 77322 \nPočet ambulantních vyšetření: 1206553", "group": 1020388458, "marker-color": "#444444", "marker-symbol": "hotel"}}, {"type": "Feature", "id": 1832727383, "geometry": {"type": "Point", "coordinates": [14.459379, 50.028254]}, "properties": {"title": "Thomayerova nemocnice, Vídeňská, 142 00 Prague, Czechia", "description": "Zřizovatel: Ministerstvo zdravotnictví Počet lůžek: 1600 \nPočet lékařů: 371 \nPočet sester: 920 \nPočet hospitalizací: 35899 \nPočet ambulantních vyšetření: 727993", "group": 1020388458, "marker-color": "#444444", "marker-symbol": "hotel"}}, {"type": "Feature", "id": 1974185781, "geometry": {"type": "Point", "coordinates": [14.42073, 50.072519]}, "properties": {"title": "Všeobecná fakultní nemocnice, Benátská, 128 00 Prague, Czechia", "description": "Zřizovatel: Ministerstvo zdravotnictví Počet lůžek: 1537 \nPočet lékařů: 810 \nPočet sester: 1799 \nPočet hospitalizací: 67594 \nPočet ambulantních vyšetření: /", "group": 1020388458, "marker-color": "#444444", "marker-symbol": "hotel"}}, {"type": "Feature", "id": 2486277604, "geometry": {"type": "Point", "coordinates": [14.363391, 50.090413]}, "properties": {"title": "Ústřední vojenská nemocnice, U Vojenské nemocnice, 162 00 Prague, Czechia", "description": "Zřizovatel: Ministerstvo Obrany\nPočet lůžek: 677 \nPočet lékařů: 411 \nPočet sester: 718 \nPočet hospitalizací: 26440 \nPočet ambulantních vyšetření: 1203279", "group": 1020388458, "marker-color": "#444444", "marker-symbol": "hotel"}}, {"type": "Feature", "id": 3761172129, "geometry": {"type": "Point", "coordinates": [14.355147, 50.074668]}, "properties": {"title": "Nemocnice Na Homolce, Roentgenova, 169 00 Prague, Czechia", "description": "Zřizovatel: Ministerstvo zdravotnictví Počet lůžek: 357 \nPočet lékařů: 278 \nPočet sester: 701 \nPočet hospitalizací: 20790 \nPočet ambulantních vyšetření: 1192860", "group": 1020388458, "marker-color": "#444444", "marker-symbol": "hotel"}}, {"type": "Feature", "id": 3121824420, "geometry": {"type": "Point", "coordinates": [14.39588, 50.086736]}, "properties": {"title": "Nemocnice Milosrdných sester sv. Karla Boromejského, Vlašská 336/36, 118 00 Prague, Czechia", "description": "Zřizovatel: soukromý vlastník - Kongregace Milosrdných sester svatého Karla Boromejského\nPočet lůžek: 190 \nPočet lékařů: 58 \nPočet sester: 189 \nPočet hospitalizací: 4944 \nPočet ambulantních vyšetření: 30864", "group": 1020388458, "marker-color": "#444444", "marker-symbol": "hotel"}}, {"type": "Feature", "id": 3349123127, "geometry": {"type": "Point", "coordinates": [14.42153, 50.09239]}, "properties": {"title": "Nemocnice Na Františku, U Milosrdných, 110000 Prague, Czechia", "description": "Zřizovatel: obec \nPočet lůžek: 139 \nPočet lékařů: 73 \nPočet sester: 133 \nPočet hospitalizací: 8000 \nPočet ambulantních vyšetření: 80000", "group": 1020388458, "marker-color": "#444444", "marker-symbol": "hotel"}}, {"type": "Feature", "id": 826195372, "geometry": {"type": "Point", "coordinates": [14.420379, 50.069245]}, "properties": {"title": "Nemocnice sv. Alžběty, Na Slupi 448/6, 128 00 Prague, Czechia", "description": "Zřizovatel: soukromý vlastník - Konvent sester alžbětinek v Praze\nPočet lůžek: 103 \nPočet lékařů: / \nPočet sester: / \nPočet hospitalizací: / \nPočet ambulantních vyšetření: /", "group": 1020388458, "url": "https://or.justice.cz/ias/ui/rejstrik-firma.vysledky?subjektId=392322&typ=UPLNY", "marker-color": "#444444", "marker-symbol": "hotel"}}, {"type": "Feature", "id": 3294724846, "geometry": {"type": "Point", "coordinates": [14.447887, 50.081742]}, "properties": {"title": "Nemocnice na Žižkově, Kubelíkova 1250/16, 130 00 Prague, Czechia", "description": "Zřizovatel: soukromý vlastník - Konvent sester alžbětinek v Praze\nPočet lůžek: / \nPočet lékařů: / \nPočet sester: / \nPočet hospitalizací: / \nPočet ambulantních vyšetření: /", "group": 1020388458, "url": "https://or.justice.cz/ias/ui/rejstrik-firma.vysledky?subjektId=587443&typ=UPLNY", "marker-color": "#444444", "marker-symbol": "hotel"}}, {"type": "Feature", "id": 2235907990, "geometry": {"type": "Point", "coordinates": [16.050813, 48.869402]}, "properties": {"title": "Nemocnice Znojmo, MUDr. Jana Janského, 669 02 Znojmo, Czechia", "description": "Zřizovatel: kraj \nPočet lůžek: 590 \nPočet lékařů: / \nPočet sester: / \nPočet hospitalizací: / \nPočet ambulantních vyšetření: /", "group": 2451465079, "url": "https://or.justice.cz/ias/ui/rejstrik-firma.vysledky?subjektId=608961&typ=UPLNY", "marker-color": "#e32c31", "marker-symbol": "hotel"}}, {"type": "Feature", "id": 2858792629, "geometry": {"type": "Point", "coordinates": [16.979834, 49.278112]}, "properties": {"title": "Nemocnice Vyškov, Purkyňova, 682 01 Vyškov, Czechia", "description": "Zřizovatel: kraj \nPočet lůžek: 363 \nPočet lékařů: / \nPočet sester: / \nPočet hospitalizací: / \nPočet ambulantních vyšetření: /", "group": 2451465079, "url": "https://or.justice.cz/ias/ui/rejstrik-firma.vysledky?subjektId=607332&typ=UPLNY", "marker-color": "#e32c31", "marker-symbol": "hotel"}}, {"type": "Feature", "id": 3715749535, "geometry": {"type": "Point", "coordinates": [17.144997, 48.864254]}, "properties": {"title": "Nemocnice TGM Hodonín, Purkyňova 2731/11, 695 01 Hodonín, Czechia", "description": "Zřizovatel: kraj \nPočet lůžek: 200 \nPočet lékařů: 61 \nPočet sester: 191 \nPočet hospitalizací: 8853 \nPočet ambulantních vyšetření: 150243", "group": 2451465079, "url": "https://or.justice.cz/ias/ui/rejstrik-firma.vysledky?subjektId=223337&typ=UPLNY", "marker-color": "#e32c31", "marker-symbol": "hotel"}}, {"type": "Feature", "id": 203244108, "geometry": {"type": "Point", "coordinates": [17.112132, 49.008804]}, "properties": {"title": "Nemocnice Kyjov, Strážovská, 697 01 Kyjov, Czechia", "description": "Zřizovatel: kraj \nPočet lůžek: / \nPočet lékařů: 171 \nPočet sester: 404 \nPočet hospitalizací: / \nPočet ambulantních vyšetření: 18646", "group": 2451465079, "url": "https://or.justice.cz/ias/ui/rejstrik-firma.vysledky?subjektId=219904&typ=UPLNY", "marker-color": "#e32c31", "marker-symbol": "hotel"}}, {"type": "Feature", "id": 1361253869, "geometry": {"type": "Point", "coordinates": [16.57375, 49.175416]}, "properties": {"title": "Fakultní nemocnice Brno - Bohunice, Kamenice, 625 00 Brno, Czechia", "description": "Zřizovatel: Ministerstvo zdravotnictví Počet lůžek: 1908 \nPočet lékařů: 955 \nPočet sester: 2686 \nPočet hospitalizací: 67097 \nPočet ambulantních vyšetření: 1086799", "group": 2451465079, "marker-color": "#e32c31", "marker-symbol": "hotel"}}, {"type": "Feature", "id": 1636962834, "geometry": {"type": "Point", "coordinates": [16.598755, 49.191306]}, "properties": {"title": "Fakultní nemocnice u sv. Anny v Brně, Pekařská 664/53, 602 00 Brno, Czechia", "description": "Zřizovatel: Ministerstvo zdravotnictví Počet lůžek: 886 \nPočet lékařů: 404\n Počet sester: 951 \nPočet hospitalizací: 26971 \nPočet ambulantních vyšetření: /", "group": 2451465079, "marker-color": "#e32c31", "marker-symbol": "hotel"}}, {"type": "Feature", "id": 3365455122, "geometry": {"type": "Point", "coordinates": [16.596756, 49.184823]}, "properties": {"title": "Nemocnice Milosrdných bratří, Polní 553/3, 639 00 Brno, Czechia", "description": "Zřizovatel: obec \nPočet lůžek: 466 \nPočet lékařů: 84 \nPočet sester: 252 \nPočet hospitalizací: 11764 \nPočet ambulantních vyšetření: 30195", "group": 2451465079, "url": "https://or.justice.cz/ias/ui/rejstrik-firma.vysledky?subjektId=590908&typ=UPLNY", "marker-color": "#e32c31", "marker-symbol": "hotel"}}, {"type": "Feature", "id": 2153578786, "geometry": {"type": "Point", "coordinates": [16.615174, 49.197812]}, "properties": {"title": "Úrazová nemocnice v Brně, Ponávka, 602 00 Brno, Czechia", "description": "Zřizovatel: obec \nPočet lůžek: 199 \nPočet lékařů: 100 \nPočet sester: 285 \nPočet hospitalizací: 8604 \nPočet ambulantních vyšetření: 272588", "group": 2451465079, "url": "https://or.justice.cz/ias/ui/rejstrik-firma.vysledky?subjektId=325834&typ=UPLNY", "marker-color": "#e32c31", "marker-symbol": "hotel"}}, {"type": "Feature", "id": 2180537348, "geometry": {"type": "Point", "coordinates": [16.631154, 49.202605]}, "properties": {"title": "Vojenská nemocnice Brno, Lazaretní, 615 00 Brno, Czechia", "description": "Zřizovatel: Ministerstvo obrany \nPočet lůžek: 218 \nPočet lékařů: 71 \nPočet sester: 335 \nPočet hospitalizací: 8341 \nPočet ambulantních vyšetření: 178818", "group": 2451465079, "marker-color": "#e32c31", "marker-symbol": "hotel"}}, {"type": "Feature", "id": 2315793200, "geometry": {"type": "Point", "coordinates": [16.729111, 48.945156]}, "properties": {"title": "Hustopeče - Městská nemocnice, Hybešova, 693 01 Hustopeče, Czechia", "description": "Zřizovatel: kraj \nPočet lůžek: 119 \nPočet lékařů: / \nPočet sester: / \nPočet hospitalizací: / \nPočet ambulantních vyšetření: /", "group": 2451465079, "url": "https://or.justice.cz/ias/ui/rejstrik-firma.vysledky?subjektId=903315&typ=UPLNY", "marker-color": "#e32c31", "marker-symbol": "hotel"}}, {"type": "Feature", "id": 2438256790, "geometry": {"type": "Point", "coordinates": [16.879477, 48.752294]}, "properties": {"title": "Nemocnice Břeclav p.o., U Nemocnice, 690 25 Břeclav, Czechia", "description": "Zřizovatel: kraj \nPočet lůžek: 419 \nPočet lékařů: 141 \nPočet sester: 477 \nPočet hospitalizací: 19087 \nPočet ambulantních vyšetření: 181185", "group": 2451465079, "url": "https://or.justice.cz/ias/ui/rejstrik-firma.vysledky?subjektId=609520&typ=UPLNY", "marker-color": "#e32c31", "marker-symbol": "hotel"}}, {"type": "Feature", "id": 1355538575, "geometry": {"type": "Point", "coordinates": [16.579521, 49.544674]}, "properties": {"title": "Nemocnice Letovice, Pod klášterem 55/17, 679 61 Letovice, Czechia", "description": "Zřizovatel: kraj \nPočet lůžek: 120 \nPočet lékařů: 12 \nPočet sester: 39 \nPočet hospitalizací: / \nPočet ambulantních vyšetření: /", "group": 2451465079, "url": "https://or.justice.cz/ias/ui/rejstrik-firma.vysledky?subjektId=607310&typ=UPLNY", "marker-color": "#e32c31", "marker-symbol": "hotel"}}, {"type": "Feature", "id": 2587553673, "geometry": {"type": "Point", "coordinates": [16.644048, 49.490377]}, "properties": {"title": "Nemocnice Boskovice, Otakara Kubína, 680 11 Boskovice, Czechia", "description": "Zřizovatel: kraj \nPočet lůžek: 272 \nPočet lékařů: 77 \nPočet sester: 241 \nPočet hospitalizací: 10056 \nPočet ambulantních vyšetření: 316838", "group": 2451465079, "url": "https://or.justice.cz/ias/ui/rejstrik-firma.vysledky?subjektId=304319&typ=UPLNY", "marker-color": "#e32c31", "marker-symbol": "hotel"}}, {"type": "Feature", "id": 1713363418, "geometry": {"type": "Point", "coordinates": [16.653567, 49.362199]}, "properties": {"title": "Nemocnice Blansko, Sadová 1596/33, 678 01 Blansko, Czechia", "description": "Zřizovatel: Obec \nPočet lůžek: 183 \nPočet lékařů: 74 \nPočet sester: 167 \nPočet hospitalizací: 5847\nPočet ambulantních vyšetření: /", "group": 2451465079, "url": "https://or.justice.cz/ias/ui/rejstrik-firma.vysledky?subjektId=406659&typ=UPLNY", "marker-color": "#e32c31", "marker-symbol": "hotel"}}, {"type": "Feature", "id": 462977067, "geometry": {"type": "Point", "coordinates": [16.433507, 49.347658]}, "properties": {"title": "Nemocnice Tišnov, Purkyňova 279, 666 01 Tišnov, Czechia", "description": "Zřizovatel: kraj \nPočet lůžek: 90 \nPočet lékařů: 10 \nPočet sester: 28 \nPočet hospitalizací: / \nPočet ambulantních vyšetření: /", "group": 2451465079, "url": "https://or.justice.cz/ias/ui/rejstrik-firma.vysledky?subjektId=614350&typ=UPLNY", "marker-color": "#e32c31", "marker-symbol": "hotel"}}, {"type": "Feature", "id": 2282326099, "geometry": {"type": "Point", "coordinates": [16.759129, 48.743834]}, "properties": {"title": "Nemocnice Valtice s.r.o. Klášterní 1150, 691 42 Valtice, Czech Republic", "description": "Zřizovatel: soukromý vlastník \nPočet lůžek: 164 \nPočet lékařů: 12 \nPočet sester: / \nPočet hospitalizací: 551 \nPočet ambulantních vyšetření: /", "group": 2451465079, "marker-color": "#e32c31"}}, {"type": "Feature", "id": 3193243011, "geometry": {"type": "Point", "coordinates": [17.237322, 49.583743]}, "properties": {"title": "Fakultní nemocnice Olomouc, Za nemocnicí, 783 01 Olomouc, Czechia", "description": "Zřizovatel: ministerstvo zdravotnictví Počet lůžek: 1174 \nPočet lékařů: 747 \nPočet sester: 1467 \nPočet hospitalizací: 52870 \nPočet ambulantních vyšetření: 872864", "group": 465184557, "marker-symbol": "hotel"}}, {"type": "Feature", "id": 1191163917, "geometry": {"type": "Point", "coordinates": [17.265414, 49.605848]}, "properties": {"title": "Vojenská nemocnice, Sušilovo nám., 779 00 Olomouc, Czechia", "description": "Zřizovatel: Ministerstvo Obrany\nPočet lůžek: / \nPočet lékařů: / \nPočet sester: / \nPočet hospitalizací: / \nPočet ambulantních vyšetření: /", "group": 465184557, "marker-symbol": "hotel"}}, {"type": "Feature", "id": 121042145, "geometry": {"type": "Point", "coordinates": [17.473806, 49.457475]}, "properties": {"title": "Nemocnice Přerov, Dvořákova, 750 02 Přerov, Czechia", "description": "Zřizovatel: soukromý vlastník - AGEL a.s.\nPočet lůžek: / \nPočet lékařů: / \nPočet sester: / \nPočet hospitalizací: 14852 \nPočet ambulantních vyšetření: /", "group": 465184557, "url": "https://or.justice.cz/ias/ui/rejstrik-firma.vysledky?subjektId=710208&typ=UPLNY", "marker-symbol": "hotel"}}, {"type": "Feature", "id": 209623214, "geometry": {"type": "Point", "coordinates": [17.08669, 49.475873]}, "properties": {"title": "Nemocnice Prostějov, Gen. Dudy, 796 04 Prostějov, Czechia", "description": "Zřizovatel: soukromý vlastník - AGEL a.s.\nPočet lůžek: / \nPočet lékařů: / \nPočet sester: / \nPočet hospitalizací: 18191 \nPočet ambulantních vyšetření:", "group": 465184557, "url": "https://or.justice.cz/ias/ui/rejstrik-firma.vysledky?subjektId=710208&typ=UPLNY", "marker-symbol": "hotel"}}, {"type": "Feature", "id": 3483085097, "geometry": {"type": "Point", "coordinates": [17.29815, 49.72246]}, "properties": {"title": "Nemocnice Šternberk, Jívavská 1435/20, 785 01 Šternberk, Czechia", "description": "Zřizovatel: soukromý vlastník - AGEL a.s.\nPočet lůžek: / \nPočet lékařů: / \nPočet sester: /\nPočet hospitalizací: 12505 \nPočet ambulantních vyšetření:", "group": 465184557, "url": "https://or.justice.cz/ias/ui/rejstrik-firma.vysledky?subjektId=710208&typ=UPLNY", "marker-symbol": "hotel"}}, {"type": "Feature", "id": 123144951, "geometry": {"type": "Point", "coordinates": [16.965441, 49.959049]}, "properties": {"title": "Šumperská nemocnice, Nemocniční, 787 01 Šumperk, Czechia", "description": "Zřizovatel: soukromý vlastník - Martin Polach\nPočet lůžek: / \nPočet lékařů: / \nPočet sester: / \nPočet hospitalizací: / \nPočet ambulantních vyšetření: /", "group": 465184557, "url": "https://or.justice.cz/ias/ui/rejstrik-firma.vysledky?subjektId=703089&typ=UPLNY", "marker-symbol": "hotel"}}, {"type": "Feature", "id": 2044819038, "geometry": {"type": "Point", "coordinates": [17.198164, 50.228239]}, "properties": {"title": "Jesenická nemocnice, Tyršova, 790 01 Jeseník, Czechia", "description": "Zřizovatel: soukromý vlastník - AGEL a.s.\nPočet lůžek: / \nPočet lékařů: /\nPočet sester: / \nPočet hospitalizací: /\nPočet ambulantních vyšetření: /", "group": 465184557, "url": "https://or.justice.cz/ias/ui/rejstrik-firma.vysledky?subjektId=209942&typ=UPLNY", "marker-symbol": "hotel"}}, {"type": "Feature", "id": 638794577, "geometry": {"type": "Point", "coordinates": [17.747147, 49.555495]}, "properties": {"title": "Nemocnice Hranice, Zborovská, 753 01 Hranice, Czechia", "description": "Zřizovatel: soukromý vlastník - Nemocnice Hranice, a.s.\nPočet lůžek: 202 \nPočet lékařů: 67 \nPočet sester: 188 \nPočet hospitalizací: /\nPočet ambulantních vyšetření: /", "group": 465184557, "url": "https://or.justice.cz/ias/ui/rejstrik-firma.vysledky?subjektId=142037&typ=UPLNY", "marker-symbol": "hotel"}}, {"type": "Feature", "id": 3502829205, "geometry": {"type": "Point", "coordinates": [12.90792, 49.438053]}, "properties": {"title": "Domažlická nemocnice, Kozinova 292, 344 01 Domažlice, Czechia", "description": "Zřizovatel: kraj \nPočet lůžek: 200 \nPočet lékařů: 41 \nPočet sester: 149 \nPočet hospitalizací: 7014 \nPočet ambulantních vyšetření: 46299", "group": 3591367076, "url": "https://or.justice.cz/ias/ui/rejstrik-firma.vysledky?subjektId=157680&typ=UPLNY", "marker-color": "#b63681", "marker-symbol": "hotel"}}, {"type": "Feature", "id": 4111406426, "geometry": {"type": "Point", "coordinates": [13.29243, 49.403713]}, "properties": {"title": "Klatovská nemocnice, a.s., Plzeňská 929, 339 01 Klatovy, Czechia", "description": "Zřizovatel: kraj \nPočet lůžek: 296 \nPočet lékařů: 109 \nPočet sester: 367 \nPočet hospitalizací: 13347 \nPočet ambulantních vyšetření: 150795", "group": 3591367076, "url": "https://or.justice.cz/ias/ui/rejstrik-firma.vysledky?subjektId=63641&typ=UPLNY", "marker-color": "#b63681", "marker-symbol": "hotel"}}, {"type": "Feature", "id": 1894854028, "geometry": {"type": "Point", "coordinates": [13.155045, 49.636379]}, "properties": {"title": "Stodská nemocnice, Hradecká 600, 333 01 Stod, Czechia", "description": "Zřizovatel: kraj \nPočet lůžek: 195 \nPočet lékařů: 48 \nPočet sester: 142 \nPočet hospitalizací: 6951 \nPočet ambulantních vyšetření: 42726", "group": 3591367076, "url": "https://or.justice.cz/ias/ui/rejstrik-firma.vysledky?subjektId=157687&typ=UPLNY", "marker-color": "#b63681", "marker-symbol": "hotel"}}, {"type": "Feature", "id": 1354933967, "geometry": {"type": "Point", "coordinates": [13.376136, 49.733037]}, "properties": {"title": "Fakultní nemocnice Plzeň, Edvarda Beneše, 301 00 Plzeň, Czechia", "description": "Zřizovatel: Ministerstvo zdravotnictví Počet lůžek: 1731 \nPočet lékařů: 899 \nPočet sester: 1598 \nPočet hospitalizací: 70331 \nPočet ambulantních vyšetření: 1 014 642", "group": 3591367076, "marker-color": "#b63681", "marker-symbol": "hotel"}}, {"type": "Feature", "id": 908120161, "geometry": {"type": "Point", "coordinates": [13.369789, 49.727365]}, "properties": {"title": "Mulačova nemocnice, Dvořákova, 301 00 Plzeň, Czechia", "description": "Zřizovatel: soukromý vlastník - PRIVAMED a.s.\nPočet lůžek: 173 \nPočet lékařů: / \nPočet sester: / \nPočet hospitalizací: / \nPočet ambulantních vyšetření: /", "group": 3591367076, "url": "https://or.justice.cz/ias/ui/rejstrik-firma.vysledky?subjektId=665290&typ=UPLNY", "marker-color": "#b63681", "marker-symbol": "hotel"}}, {"type": "Feature", "id": 946526255, "geometry": {"type": "Point", "coordinates": [13.410797, 49.752567]}, "properties": {"title": "Nemocnice u Sv. Jiří, Staniční 1126/74, 312 00 Plzeň, Czechia", "description": "Zřizovatel: soukromý vlastník - Daniela Pousková, Jan Bohunčák, Václav Svrček\nPočet lůžek: 35 \nPočet lékařů: /\nPočet sester: / \nPočet hospitalizací: / \nPočet ambulantních vyšetření: /", "group": 3591367076, "url": "https://or.justice.cz/ias/ui/rejstrik-firma.vysledky?subjektId=150024&typ=UPLNY", "marker-color": "#b63681", "marker-symbol": "hotel"}}, {"type": "Feature", "id": 2069940196, "geometry": {"type": "Point", "coordinates": [13.359332, 49.765288]}, "properties": {"title": "Privamed, Kotíkovská, 323 00 Plzeň, Czechia", "description": "Zřizovatel: soukromý vlastník - PRIVAMED a.s.\nPočet lůžek: / \nPočet lékařů: / \nPočet sester: / \nPočet hospitalizací: / \nPočet ambulantních vyšetření: /", "group": 3591367076, "url": "https://or.justice.cz/ias/ui/rejstrik-firma.vysledky?subjektId=174598&typ=UPLNY", "marker-color": "#b63681", "marker-symbol": "hotel"}}, {"type": "Feature", "id": 1661382919, "geometry": {"type": "Point", "coordinates": [13.60429, 49.748931]}, "properties": {"title": "Rokycanská nemocnice, Voldušská 750, 337 01 Rokycany, Czechia", "description": "Zřizovatel: kraj \nPočet lůžek: 123 \nPočet lékařů: 38 \nPočet sester: 97 \nPočet hospitalizací: 4769 \nPočet ambulantních vyšetření: 42956", "group": 3591367076, "url": "https://or.justice.cz/ias/ui/rejstrik-firma.vysledky?subjektId=157650&typ=UPLNY", "marker-color": "#b63681", "marker-symbol": "hotel"}}, {"type": "Feature", "id": 341468800, "geometry": {"type": "Point", "coordinates": [13.526445, 49.230101]}, "properties": {"title": "Sušická nemocnice s.r.o., Chmelenská 117, 342 01 Sušice, Czech Republic", "description": "Zřizovatel: obec\nPočet lůžek: /\nPočet lékařů: /\nPočet sester: / \nPočet hospitalizací: /\nPočet ambulantních vyšetření: /", "group": 3591367076, "marker-color": "#b63681"}}, {"type": "Feature", "id": 4216836159, "geometry": {"type": "Point", "coordinates": [12.875501, 50.233093]}, "properties": {"title": "Karlovarská krajská nemocnice a.s., Bezručova, 360 09 Carlsbad, Czechia", "description": "Zřizovatel: kraj\n Počet lůžek: 394 \nPočet lékařů: 172 \nPočet sester: 554 \nPočet hospitalizací: 26403 \nPočet ambulantních vyšetření: 138302", "group": 3640402910, "url": "https://or.justice.cz/ias/ui/rejstrik-firma.vysledky?subjektId=710124&typ=UPLNY", "marker-color": "#2a4ea1", "marker-symbol": "hotel"}}, {"type": "Feature", "id": 1045622076, "geometry": {"type": "Point", "coordinates": [12.963579, 50.312087]}, "properties": {"title": "Nemocnice Ostrov, U Nemocnice, 363 01 Ostrov, Czechia", "description": "Zřizovatel: soukromý vlastník - NEMOS GROUP a.s.\n Počet lůžek: / \nPočet lékařů: / \nPočet sester: / \nPočet hospitalizací: / \nPočet ambulantních vyšetření: /", "group": 3640402910, "url": "https://or.justice.cz/ias/ui/rejstrik-firma.vysledky?subjektId=214948&typ=UPLNY", "marker-color": "#2a4ea1", "marker-symbol": "hotel"}}, {"type": "Feature", "id": 3334803624, "geometry": {"type": "Point", "coordinates": [12.704374, 49.960356]}, "properties": {"title": "Nemocnice Mariánské Lázně, U Nemocnice, 353 01 Mariánské Lázně, Czechia", "description": "Zřizovatel: soukromý vlastník - West Bohemia Medical Holding, a.s\nPočet lůžek: 127 \nPočet lékařů: / \nPočet sester: / \nPočet hospitalizací: / \nPočet ambulantních vyšetření: /", "group": 3640402910, "url": "https://or.justice.cz/ias/ui/rejstrik-firma.vysledky?subjektId=102924&typ=UPLNY", "marker-color": "#2a4ea1", "marker-symbol": "hotel"}}, {"type": "Feature", "id": 948668608, "geometry": {"type": "Point", "coordinates": [12.36609, 50.069676]}, "properties": {"title": "Nemocnice Cheb, K Nemocnici, 350 02 Cheb, Czechia", "description": "Zřizovatel: kraj \nPočet lůžek: 240 \nPočet lékařů: 63 \nPočet sester: 152 \nPočet hospitalizací: 10190 \nPočet ambulantních vyšetření: 66899", "group": 3640402910, "marker-color": "#2a4ea1", "marker-symbol": "hotel"}}, {"type": "Feature", "id": 3415163007, "geometry": {"type": "Point", "coordinates": [12.650298, 50.177923]}, "properties": {"title": "Nemocnice Sokolov, Brněnská, 356 01 Sokolov, Czechia", "description": "Zřizovatel: soukromý vlastník - NEMOS GROUP a.s.\nPočet lůžek: / \nPočet lékařů: / \nPočet sester: / \nPočet hospitalizací: / \nPočet ambulantních vyšetření: /", "group": 3640402910, "url": "https://or.justice.cz/ias/ui/rejstrik-firma.vysledky?subjektId=244654&typ=UPLNY", "marker-color": "#2a4ea1", "marker-symbol": "hotel"}}, {"type": "Feature", "id": 3605437893, "geometry": {"type": "Point", "coordinates": [15.825911, 50.202092]}, "properties": {"title": "Fakultní nemocnice, Sokolská, 500 02 Hradec Králové, Czechia", "description": "Zřizovatel: Ministerstvo zdravotnictví Počet lůžek: 1375 \nPočet lékařů: 811 \nPočet sester: 2252 \nPočet hospitalizací: 40676 \nPočet ambulantních vyšetření: 722100", "group": 4105445865, "marker-color": "#cc1b15", "marker-symbol": "hotel"}}, {"type": "Feature", "id": 1347349604, "geometry": {"type": "Point", "coordinates": [15.639804, 50.368478]}, "properties": {"title": "Městská nemocnice Hořice, Riegrova 655, 508 01 Hořice, Czechia", "description": "Zřizovatel: obec \nPočet lůžek: 120 \nPočet lékařů: / \nPočet sester: / \nPočet hospitalizací: / \nPočet ambulantních vyšetření: 8520", "group": 4105445865, "marker-color": "#cc1b15", "marker-symbol": "hotel"}}, {"type": "Feature", "id": 669986407, "geometry": {"type": "Point", "coordinates": [16.167472, 50.410761]}, "properties": {"title": "Nemocnice Náchod, Purkyňova 446, 547 01 Náchod, Czechia", "description": "Zřizovatel: kraj \nPočet lůžek: 472 \nPočet lékařů: 131 \nPočet sester: 311 \nPočet hospitalizací:  /\nPočet ambulantních vyšetření: /", "group": 4105445865, "url": "https://or.justice.cz/ias/ui/rejstrik-firma.vysledky?subjektId=157988&typ=UPLNY", "marker-color": "#cc1b15", "marker-symbol": "hotel"}}, {"type": "Feature", "id": 1462454235, "geometry": {"type": "Point", "coordinates": [15.815767, 50.448548]}, "properties": {"title": "Městská nemocnice, Vrchlického 1504, 544 01 Dvůr Králové nad Labem, Czechia", "description": "Zřizovatel: kraj \nPočet lůžek: / \nPočet lékařů: 26 \nPočet sester: /\n Počet hospitalizací: 5017 \nPočet ambulantních vyšetření: /", "group": 4105445865, "url": "https://or.justice.cz/ias/ui/rejstrik-firma.vysledky?subjektId=64113&typ=UPLNY", "marker-color": "#cc1b15", "marker-symbol": "hotel"}}, {"type": "Feature", "id": 3589036592, "geometry": {"type": "Point", "coordinates": [15.919339, 50.560443]}, "properties": {"title": "Oblastní nemocnice Trutnov, Maxima Gorkého 77, 541 01 Trutnov, Czechia", "description": "Zřizovatel: kraj\nPočet lůžek: / \nPočet lékařů: 122 \nPočet sester: 246 \nPočet hospitalizací: 12795 \nPočet ambulantních vyšetření: /", "group": 4105445865, "url": "https://or.justice.cz/ias/ui/rejstrik-firma.vysledky?subjektId=221396&typ=UPLNY", "marker-color": "#cc1b15", "marker-symbol": "hotel"}}, {"type": "Feature", "id": 4253752052, "geometry": {"type": "Point", "coordinates": [15.607195, 50.622062]}, "properties": {"title": "Nemocnice Vrchlabí, Fügnerova, 543 01 Vrchlabí, Czechia", "description": "Zřizovatel: soukromý vlastník - CRNAP LIMITED\nPočet lůžek: / \nPočet lékařů: /\nPočet sester: / \nPočet hospitalizací: / \nPočet ambulantních vyšetření: /", "group": 4105445865, "url": "https://or.justice.cz/ias/ui/rejstrik-firma.vysledky?subjektId=392687&typ=UPLNY", "marker-color": "#cc1b15", "marker-symbol": "hotel"}}, {"type": "Feature", "id": 663997339, "geometry": {"type": "Point", "coordinates": [16.334024, 50.579783]}, "properties": {"title": "Nemocnice města Broumov, Smetanova, 550 01 Broumov, Czechia", "description": "Zřizovatel: kraj \nPočet lůžek: 105 \nPočet lékařů: 8 \nPočet sester: 44 \nPočet hospitalizací: /\nPočet ambulantních vyšetření: /", "group": 4105445865, "marker-color": "#cc1b15", "marker-symbol": "hotel"}}, {"type": "Feature", "id": 1681478016, "geometry": {"type": "Point", "coordinates": [15.356956, 50.440112]}, "properties": {"title": "Oblastní nemocnice Jičín, Bolzanova 512, 506 42 Jičín, Czechia", "description": "Zřizovatel: kraj \nPočet lůžek: 508\n Počet lékařů: 113 \nPočet sester: 394 \nPočet hospitalizací: 16153 \nPočet ambulantních vyšetření: 52033", "group": 4105445865, "url": "https://or.justice.cz/ias/ui/rejstrik-firma.vysledky?subjektId=158874&typ=UPLNY", "marker-color": "#cc1b15", "marker-symbol": "hotel"}}, {"type": "Feature", "id": 1033060873, "geometry": {"type": "Point", "coordinates": [16.269538, 50.168835]}, "properties": {"title": "Nemocnice Rychnov nad Kněžnou, Jiráskova, 516 01 Rychnov nad Kněžnou, Czechia", "description": "Zřizovatel: kraj \nPočet lůžek: 255 \nPočet lékařů: 64 \nPočet sester: 190 \nPočet hospitalizací: 11658 \nPočet ambulantních vyšetření: 72102", "group": 4105445865, "url": "https://or.justice.cz/ias/ui/rejstrik-firma.vysledky?subjektId=157988&typ=UPLNY", "marker-color": "#cc1b15", "marker-symbol": "hotel"}}, {"type": "Feature", "id": 625919195, "geometry": {"type": "Point", "coordinates": [18.641476, 49.680636]}, "properties": {"title": "Nemocnice Podlesí, a.s., Hraniční, 739 61 Třinec, Czechia", "description": "Zřizovatel: soukromý vlastník - AGEL a.s.\nPočet lůžek: / \nPočet lékařů: / \nPočet sester: / \nPočet hospitalizací: / \nPočet ambulantních vyšetření: /", "group": 2744332045, "url": "https://or.justice.cz/ias/ui/rejstrik-firma.vysledky?subjektId=716795&typ=UPLNY", "marker-color": "#005e38", "marker-symbol": "hotel"}}, {"type": "Feature", "id": 3624652867, "geometry": {"type": "Point", "coordinates": [18.690468, 49.674566]}, "properties": {"title": "Nemocnice Třinec, Kaštanová, 739 94 Třinec, Czechia", "description": "Zřizovatel: kraj \nPočet lůžek: 355 \nPočet lékařů: 145 \nPočet sester: 613 \nPočet hospitalizací: 17196 \nPočet ambulantních vyšetření: 180680", "group": 2744332045, "url": "https://or.justice.cz/ias/ui/rejstrik-firma.vysledky?subjektId=258656&typ=UPLNY", "marker-color": "#005e38", "marker-symbol": "hotel"}}, {"type": "Feature", "id": 2394346868, "geometry": {"type": "Point", "coordinates": [18.35415, 49.69097]}, "properties": {"title": "Nemocnice Frýdek-Místek, U Nemocnice, 738 01 Frýdek-Místek, Czechia", "description": "Zřizovatel: kraj \nPočet lůžek: 477 \nPočet lékařů: 197 \nPočet sester: 749 \nPočet hospitalizací: 19864 \nPočet ambulantních vyšetření: 277898", "group": 2744332045, "url": "https://or.justice.cz/ias/ui/rejstrik-firma.vysledky?subjektId=243888&typ=UPLNY", "marker-color": "#005e38", "marker-symbol": "hotel"}}, {"type": "Feature", "id": 1619207901, "geometry": {"type": "Point", "coordinates": [18.336876, 49.917809]}, "properties": {"title": "Bohumínská městská nemocnice, Slezská, 735 81 Bohumín, Czechia", "description": "Zřizovatel: obec \nPočet lůžek: 109 \nPočet lékařů: 35 \nPočet sester: 110 \nPočet hospitalizací: / \nPočet ambulantních vyšetření: /", "group": 2744332045, "url": "https://or.justice.cz/ias/ui/rejstrik-firma.vysledky?subjektId=149748&typ=UPLNY", "marker-color": "#005e38", "marker-symbol": "hotel"}}, {"type": "Feature", "id": 1386525607, "geometry": {"type": "Point", "coordinates": [18.540292, 49.869438]}, "properties": {"title": "Karvinská hornická nemocnice a.s., Zakladatelská, 735 06 Karviná, Czechia", "description": "Zřizovatel: soukromý vlastník - Milan Canibal\nPočet lůžek: / \nPočet lékařů: / \nPočet sester: / \nPočet hospitalizací: / \nPočet ambulantních vyšetření: /", "group": 2744332045, "url": "https://or.justice.cz/ias/ui/rejstrik-firma.vysledky?subjektId=206474&typ=UPLNY", "marker-color": "#005e38", "marker-symbol": "hotel"}}, {"type": "Feature", "id": 3516276455, "geometry": {"type": "Point", "coordinates": [18.610556, 49.745789]}, "properties": {"title": "Nemocnice Český Těšín, Komenského, 737 01 Český Těšín, Czechia", "description": "Zřizovatel: soukromý vlastník - AGEL a.s.\nPočet lůžek: 130\nPočet lékařů: / \nPočet sester: / \nPočet hospitalizací: / \nPočet ambulantních vyšetření: /", "group": 2744332045, "url": "https://or.justice.cz/ias/ui/rejstrik-firma.vysledky?subjektId=711206&typ=UPLNY", "marker-color": "#005e38", "marker-symbol": "hotel"}}, {"type": "Feature", "id": 2459047128, "geometry": {"type": "Point", "coordinates": [18.439244, 49.784198]}, "properties": {"title": "Nemocnice s poliklinikou Havířov, Astronautů, 736 01 Havířov, Czechia", "description": "Zřizovatel: kraj \nPočet lůžek: 413 \nPočet lékařů: 176 \nPočet sester: 326 \nPočet hospitalizací: 14622 \nPočet ambulantních vyšetření: 273835", "group": 2744332045, "url": "https://or.justice.cz/ias/ui/rejstrik-firma.vysledky?subjektId=258561&typ=UPLNY", "marker-color": "#005e38", "marker-symbol": "hotel"}}, {"type": "Feature", "id": 3828443960, "geometry": {"type": "Point", "coordinates": [18.549646, 49.848466]}, "properties": {"title": "Nemocnice s poliklinikou Karviná-Ráj, Vydmuchov, 735 03 Karviná, Czechia", "description": "Zřizovatel: kraj \nPočet lůžek: 511 \nPočet lékařů: 123 \nPočet sester: 418 \nPočet hospitalizací: 17225 \nPočet ambulantních vyšetření: 974627", "group": 2744332045, "url": "https://or.justice.cz/ias/ui/rejstrik-firma.vysledky?subjektId=257765&typ=UPLNY", "marker-color": "#005e38", "marker-symbol": "hotel"}}, {"type": "Feature", "id": 1721760614, "geometry": {"type": "Point", "coordinates": [18.017477, 49.763008]}, "properties": {"title": "Nemocnice Bílovec, 17. listopadu 538/57, 743 01 Bílovec, Czechia", "description": "Zřizovatel: kraj \nPočet lůžek: 130 \nPočet lékařů: 32 \nPočet sester: 62 \nPočet hospitalizací: / \nPočet ambulantních vyšetření: /", "group": 2744332045, "url": "https://or.justice.cz/ias/ui/rejstrik-firma.vysledky?subjektId=149853&typ=UPLNY", "marker-color": "#005e38", "marker-symbol": "hotel"}}, {"type": "Feature", "id": 701563086, "geometry": {"type": "Point", "coordinates": [17.827956, 49.665517]}, "properties": {"title": "Městská nemocnice v Odrách, Nadační 375/1, 742 35 Odry, Czechia", "description": "Zřizovatel: obec \nPočet lůžek: 75 \nPočet lékařů: 15 \nPočet sester: 50 \nPočet hospitalizací: / \nPočet ambulantních vyšetření: /", "group": 2744332045, "marker-color": "#005e38", "marker-symbol": "hotel"}}, {"type": "Feature", "id": 2907959263, "geometry": {"type": "Point", "coordinates": [18.017039, 49.58981]}, "properties": {"title": "Nemocnice Nový Jičín, Revoluční 2214/35, 741 01 Nový Jičín, Czechia", "description": "Zřizovatel: soukromý vlastník - AGEL a.s.\nPočet lůžek: 405 \nPočet lékařů: / \nPočet sester: / \nPočet hospitalizací: / \nPočet ambulantních vyšetření: /", "group": 2744332045, "url": "https://or.justice.cz/ias/ui/rejstrik-firma.vysledky?subjektId=204838&typ=UPLNY", "marker-color": "#005e38", "marker-symbol": "hotel"}}, {"type": "Feature", "id": 2847485106, "geometry": {"type": "Point", "coordinates": [17.878495, 49.934364]}, "properties": {"title": "Slezská nemocnice v Opavě, Olomoucká, 746 01 Opava, Czechia", "description": "Zřizovatel: kraj \nPočet lůžek: 535 \nPočet lékařů: 163 \nPočet sester: 560 \nPočet hospitalizací: 22565 \nPočet ambulantních vyšetření: 324131", "group": 2744332045, "url": "https://or.justice.cz/ias/ui/rejstrik-firma.vysledky?subjektId=259353&typ=UPLNY", "marker-color": "#005e38", "marker-symbol": "hotel"}}, {"type": "Feature", "id": 2213739327, "geometry": {"type": "Point", "coordinates": [18.157785, 49.828179]}, "properties": {"title": "FN Ostrava, K Myslivně, 708 33 Ostrava, Czechia", "description": "Zřizovatel: Ministerstvo zdravotnictví Počet lůžek: 1127 \nPočet lékařů: 540 \nPočet sester: 1335 \nPočet hospitalizací: 44966 \nPočet ambulantních vyšetření: 611853", "group": 2744332045, "marker-color": "#005e38", "marker-symbol": "hotel"}}, {"type": "Feature", "id": 1684000660, "geometry": {"type": "Point", "coordinates": [18.274836, 49.832996]}, "properties": {"title": "Městská nemocnice Ostrava, Nemocniční 898/20a, 702 00 Ostrava, Czechia", "description": "Zřizovatel: obec \nPočet lůžek: / \nPočet lékařů: / \nPočet sester: / \nPočet hospitalizací: /\nPočet ambulantních vyšetření: /", "group": 2744332045, "marker-color": "#005e38", "marker-symbol": "hotel"}}, {"type": "Feature", "id": 222137187, "geometry": {"type": "Point", "coordinates": [18.270551, 49.815295]}, "properties": {"title": "Vítkovická nemocnice, Mírová, 703 00 Ostrava, Czechia", "description": "Zřizovatel: soukromý vlastník - AGEL a.s.\nPočet lůžek: / \nPočet lékařů: / \nPočet sester: / \nPočet hospitalizací: / \nPočet ambulantních vyšetření: /", "group": 2744332045, "url": "https://or.justice.cz/ias/ui/rejstrik-firma.vysledky?subjektId=685935&typ=UPLNY", "marker-color": "#005e38", "marker-symbol": "hotel"}}, {"type": "Feature", "id": 2373178511, "geometry": {"type": "Point", "coordinates": [17.471297, 49.994934]}, "properties": {"title": "Podhorská nemocnice, Nádražní 29, 792 01 Bruntál, Czechia", "description": "Zřizovatel: soukromý vlastník - AGEL a.s.\nPočet lůžek: / \nPočet lékařů: / \nPočet sester: / \nPočet hospitalizací: / \nPočet ambulantních vyšetření: /", "group": 2744332045, "url": "https://or.justice.cz/ias/ui/rejstrik-firma.vysledky?subjektId=48852&typ=UPLNY", "marker-color": "#005e38", "marker-symbol": "hotel"}}, {"type": "Feature", "id": 1433175689, "geometry": {"type": "Point", "coordinates": [14.4694, 48.960799]}, "properties": {"title": "Nemocnice České Budějovice", "description": "Zřizovatel: kraj \nPočet lůžek: 1477 \nPočet lékařů: 538 \nPočet sester: 1471 \nPočet hospitalizací: 56986 \nPočet ambulantních vyšetření: /", "group": 1652591349, "url": "https://or.justice.cz/ias/ui/rejstrik-firma.vysledky?subjektId=158166&typ=UPLNY", "marker-color": "#ffcc00", "marker-symbol": "hotel"}}, {"type": "Feature", "id": 3081247027, "geometry": {"type": "Point", "coordinates": [15.431072, 49.076045]}, "properties": {"title": "Nemocnice Dačice, Antonínská, 380 01 Dačice, Czechia", "description": "Zřizovatel: kraj \nPočet lůžek: / \nPočet lékařů: / \nPočet sester: / \nPočet hospitalizací: / \nPočet ambulantních vyšetření: /", "group": 1652591349, "url": "https://or.justice.cz/ias/ui/rejstrik-firma.vysledky?subjektId=26406&typ=UPLNY", "marker-color": "#ffcc00", "marker-symbol": "hotel"}}, {"type": "Feature", "id": 2382718790, "geometry": {"type": "Point", "coordinates": [15.003489, 49.138997]}, "properties": {"title": "Nemocnice Jindřichův Hradec, a.s., U Nemocnice, 377 01 Jindřichův Hradec, Czechia", "description": "Zřizovatel: kraj \nPočet lůžek: 344 \nPočet lékařů: 69 \nPočet sester: 177 \nPočet hospitalizací: / \nPočet ambulantních vyšetření: /", "group": 1652591349, "url": "https://or.justice.cz/ias/ui/rejstrik-firma.vysledky?subjektId=713839&typ=UPLNY", "marker-color": "#ffcc00", "marker-symbol": "hotel"}}, {"type": "Feature", "id": 4221541180, "geometry": {"type": "Point", "coordinates": [14.157131, 49.302129]}, "properties": {"title": "Nemocnice Písek, a.s., Budějovická, 397 11 Písek, Czechia", "description": "Zřizovatel: kraj \nPočet lůžek: 362 \nPočet lékařů: 113 \nPočet sester: 397 \nPočet hospitalizací: 16017 \nPočet ambulantních vyšetření: 173087", "group": 1652591349, "url": "https://or.justice.cz/ias/ui/rejstrik-firma.vysledky?subjektId=712062&typ=PLATNY", "marker-color": "#ffcc00", "marker-symbol": "hotel"}}, {"type": "Feature", "id": 1490050403, "geometry": {"type": "Point", "coordinates": [14.010853, 49.007023]}, "properties": {"title": "Nemocnice Prachatice, Nebahovská, 383 01 Prachatice, Czechia", "description": "Zřizovatel: kraj \nPočet lůžek: 146 \nPočet lékařů: 58 \nPočet sester: 160 \nPočet hospitalizací: 6388 \nPočet ambulantních vyšetření: 47000", "group": 1652591349, "url": "https://or.justice.cz/ias/ui/rejstrik-firma.vysledky?subjektId=217718&typ=UPLNY", "marker-color": "#ffcc00", "marker-symbol": "hotel"}}, {"type": "Feature", "id": 229760117, "geometry": {"type": "Point", "coordinates": [13.907794, 49.266137]}, "properties": {"title": "Nemocnice Strakonice, Lidická, 386 01 Strakonice, Czechia", "description": "Zřizovatel: kraj \nPočet lůžek: 314 \nPočet lékařů: 99 \nPočet sester: 218 \nPočet hospitalizací: 13500\nPočet ambulantních vyšetření: /", "group": 1652591349, "url": "https://or.justice.cz/ias/ui/rejstrik-firma.vysledky?subjektId=217488&typ=UPLNY", "marker-color": "#ffcc00", "marker-symbol": "hotel"}}, {"type": "Feature", "id": 396158478, "geometry": {"type": "Point", "coordinates": [14.325139, 48.811974]}, "properties": {"title": "Nemocnice Český Krumlov, Na Moráni, 381 01 Český Krumlov, Czechia", "description": "Zřizovatel: kraj \nPočet lůžek: 247 \nPočet lékařů: 64 \nPočet sester: 216 \nPočet hospitalizací: / \nPočet ambulantních vyšetření: 117626", "group": 1652591349, "url": "https://or.justice.cz/ias/ui/rejstrik-firma.vysledky?subjektId=712061&typ=UPLNY", "marker-color": "#ffcc00", "marker-symbol": "hotel"}}, {"type": "Feature", "id": 40915492, "geometry": {"type": "Point", "coordinates": [14.652722, 49.41658]}, "properties": {"title": "Nemocnice Tábor, a.s., Kpt. Jaroše, 390 03 Tábor, Czechia", "description": "Zřizovatel: kraj \nPočet lůžek: 466 \nPočet lékařů: 142 \nPočet sester: 498 \nPočet hospitalizací: 20358 \nPočet ambulantních vyšetření: 344004", "group": 1652591349, "url": "https://or.justice.cz/ias/ui/rejstrik-firma.vysledky?subjektId=712063&typ=UPLNY", "marker-color": "#ffcc00", "marker-symbol": "hotel"}}, {"type": "Feature", "id": 4125051, "geometry": {"type": "Point", "coordinates": [13.764363, 49.056858]}, "properties": {"title": "Nemocnice Vimperk a.s., Pivovarská, 385 01 Vimperk, Czech Republic", "description": "Zřizovatel: Soukromý vlastník, NEAC International lmtd\nPočet lůžek: /\nPočet lékařů: /\nPočet sester: /\nPočet hospitalizací: / \nPočet ambulantních vyšetření: /", "group": 1652591349, "marker-color": "#ffcc00"}}, {"type": "Feature", "id": 2501165256, "geometry": {"type": "Point", "coordinates": [17.652334, 49.029107]}, "properties": {"title": "Městská nemocnice s poliklinikou Uh. Brod, s.r.o., Partyzánů 2174, 688 01 Uherský Brod, Czechia", "description": "Zřizovatel: obec \nPočet lůžek: 90 \nPočet lékařů: 19 \nPočet sester: 44 \nPočet hospitalizací: / \nPočet ambulantních vyšetření: /", "group": 2799177597, "url": "https://or.justice.cz/ias/ui/rejstrik-firma.vysledky?subjektId=92798&typ=UPLNY", "marker-color": "#fb6033", "marker-symbol": "hotel"}}, {"type": "Feature", "id": 3476509811, "geometry": {"type": "Point", "coordinates": [17.45358, 49.063206]}, "properties": {"title": "Uherskohradišťská nemocnice a.s., Zahrádky, 686 06 Uherské Hradiště, Czechia", "description": "Zřizovatel: kraj \nPočet lůžek: 609 \nPočet lékařů: 174 \nPočet sester: 496 \nPočet hospitalizací: 24740 \nPočet ambulantních vyšetření: 1006054", "group": 2799177597, "url": "https://or.justice.cz/ias/ui/rejstrik-firma.vysledky?subjektId=202853&typ=UPLNY", "marker-color": "#fb6033", "marker-symbol": "hotel"}}, {"type": "Feature", "id": 3958753568, "geometry": {"type": "Point", "coordinates": [17.998209, 49.332166]}, "properties": {"title": "Vsetínská nemocnice, Nemocniční 955, 755 01 Vsetín, Czechia", "description": "Zřizovatel: kraj \nPočet lůžek: 344 \nPočet lékařů: 87 \nPočet sester: 249 \nPočet hospitalizací: 12676 \nPočet ambulantních vyšetření: 150068", "group": 2799177597, "url": "https://or.justice.cz/ias/ui/rejstrik-firma.vysledky?subjektId=30640&typ=UPLNY", "marker-color": "#fb6033", "marker-symbol": "hotel"}}, {"type": "Feature", "id": 3952580656, "geometry": {"type": "Point", "coordinates": [17.698492, 49.22826]}, "properties": {"title": "Krajská nemocnice Tomáše Bati, Havlíčkovo nábřeží, 763 14 Zlín, Czechia", "description": "Zřizovatel: kraj \nPočet lůžek: 928\nPočet lékařů: 306 \nPočet sester: 820 \nPočet hospitalizací: 37901 \nPočet ambulantních vyšetření: /", "group": 2799177597, "url": "https://or.justice.cz/ias/ui/rejstrik-firma.vysledky?subjektId=202855&typ=UPLNY", "marker-color": "#fb6033", "marker-symbol": "hotel"}}, {"type": "Feature", "id": 62675115, "geometry": {"type": "Point", "coordinates": [17.873698, 49.090382]}, "properties": {"title": "Městská nemocnice Slavičín, Komenského, 763 21 Slavičín, Czechia", "description": "Zřizovatel: obec \nPočet lůžek: / \nPočet lékařů: / \nPočet sester: / \nPočet hospitalizací: / \nPočet ambulantních vyšetření: /", "group": 2799177597, "marker-color": "#fb6033", "marker-symbol": "hotel"}}, {"type": "Feature", "id": 3325611371, "geometry": {"type": "Point", "coordinates": [17.656966, 49.222681]}, "properties": {"title": "EUC Klinika Zlín, třída Tomáše Bati 5135, 760 01 Zlín, Czechia", "description": "Zřizovatel: soukromý vlastník - Jan Blaško\nPočet lůžek: / \nPočet lékařů: / \nPočet sester: / \nPočet hospitalizací: / \nPočet ambulantních vyšetření: /", "group": 2799177597, "url": "https://or.justice.cz/ias/ui/rejstrik-firma.vysledky?subjektId=63199&typ=UPLNY", "marker-color": "#fb6033", "marker-symbol": "hotel"}}, {"type": "Feature", "id": 440442841, "geometry": {"type": "Point", "coordinates": [17.379686, 49.291191]}, "properties": {"title": "Nemocnice Kroměříž, Havlíčkova, 767 01 Kroměříž, Czechia", "description": "Zřizovatel: kraj \nPočet lůžek: 386 \nPočet lékařů: 111 \nPočet sester: 298 \nPočet hospitalizací: 18147 \nPočet ambulantních vyšetření: 419162", "group": 2799177597, "url": "https://or.justice.cz/ias/ui/rejstrik-firma.vysledky?subjektId=202850&typ=UPLNY", "marker-color": "#fb6033", "marker-symbol": "hotel"}}, {"type": "Feature", "id": 1508026151, "geometry": {"type": "Point", "coordinates": [17.97704, 49.462912]}, "properties": {"title": "Nemocnice Valašské Meziříčí, U Nemocnice, 757 01 Valašské Meziříčí, Czechia", "description": "Zřizovatel: soukromý vlastník - AGEL a.s.\nPočet lůžek: / \nPočet lékařů: / \nPočet sester: / \nPočet hospitalizací: / \nPočet ambulantních vyšetření: /", "group": 2799177597, "url": "https://or.justice.cz/ias/ui/rejstrik-firma.vysledky?subjektId=4980&typ=UPLNY", "marker-color": "#fb6033", "marker-symbol": "hotel"}}, {"type": "Feature", "id": 2878689225, "geometry": {"type": "Point", "coordinates": [17.850419, 49.219142]}, "properties": {"title": "Nemocnice Milosrdných bratří, Zlínská, 763 12 Vizovice, Czech Republic", "description": "Zřizovatel: soukromý vlastník \nPočet lůžek: 466 \nPočet lékařů: 84 \nPočet sester: 552 \nPočet hospitalizací: 11764 \nPočet ambulantních vyšetření: 30195", "group": 2799177597, "marker-color": "#fb6033"}}, {"type": "Feature", "id": 850547503, "geometry": {"type": "Point", "coordinates": [15.571464, 49.6091]}, "properties": {"title": "Okresní nemocnice Havlíčkův Brod, Havlíčkova, 580 01 Havlíčkův Brod, Czechia", "description": "Zřizovatel: Kraj \nPočet lůžek: 534 \nPočet lékařů: 172 \nPočet sester: 597 \nPočet hospitalizací: 18808 \nPočet ambulantních vyšetření: 230 993", "group": 3135952126, "url": "https://or.justice.cz/ias/ui/rejstrik-firma.vysledky?subjektId=357077&typ=UPLNY", "marker-color": "#3cc954", "marker-symbol": "hotel"}}, {"type": "Feature", "id": 3847902179, "geometry": {"type": "Point", "coordinates": [15.569439, 49.397408]}, "properties": {"title": "Nemocnice Jihlava, Vrchlického, 586 01 Jihlava, Czechia", "description": "Zřizovatel: Kraj \nPočet lůžek: 649 \nPočet lékařů: 218 \nPočet sester: 641 \nPočet hospitalizací: 24843 \nPočet ambulantních vyšetření: 409037", "group": 3135952126, "url": "https://or.justice.cz/ias/ui/rejstrik-firma.vysledky?subjektId=309337&typ=UPLNY", "marker-color": "#3cc954", "marker-symbol": "hotel"}}, {"type": "Feature", "id": 3429676512, "geometry": {"type": "Point", "coordinates": [16.062205, 49.561993]}, "properties": {"title": "Okresní Nemocnice Nové Město na Moravě, Žďárská, 592 31 Nové Město na Moravě, Czechia", "description": "Zřizovatel: Kraj \nPočet lůžek: 457 \nPočet lékařů: 162 \nPočet sester: 437 \nPočet hospitalizací: 19299 \nPočet ambulantních vyšetření: 213096", "group": 3135952126, "url": "https://or.justice.cz/ias/ui/rejstrik-firma.vysledky?subjektId=306153&typ=UPLNY", "marker-color": "#3cc954", "marker-symbol": "hotel"}}, {"type": "Feature", "id": 2930631400, "geometry": {"type": "Point", "coordinates": [15.230683, 49.434597]}, "properties": {"title": "Nemocnice Pelhřimov, Slovanského bratrství, 393 01 Pelhřimov, Czechia", "description": "Zřizovatel: Kraj \nPočet lůžek: 340 \nPočet lékařů: 97 \nPočet sester: 280 \nPočet hospitalizací: 13111 \nPočet ambulantních vyšetření: 80754", "group": 3135952126, "url": "https://or.justice.cz/ias/ui/rejstrik-firma.vysledky?subjektId=728637&typ=UPLNY", "marker-color": "#3cc954", "marker-symbol": "hotel"}}, {"type": "Feature", "id": 3476235120, "geometry": {"type": "Point", "coordinates": [15.890101, 49.211979]}, "properties": {"title": "Nemocnice Třebíč, Purkyňovo nám., 674 01 Třebíč, Czechia", "description": "Zřizovatel: Kraj \nPočet lůžek: 422 \nPočet lékařů: 178 \nPočet sester: 468 \nPočet hospitalizací: / \nPočet ambulantních vyšetření: /", "group": 3135952126, "url": "https://or.justice.cz/ias/ui/rejstrik-firma.vysledky?subjektId=305947&typ=UPLNY", "marker-color": "#3cc954", "marker-symbol": "hotel"}}, {"type": "Feature", "id": 3174201160, "geometry": {"type": "Point", "coordinates": [16.008184, 49.391266]}, "properties": {"title": "Nemocnice Svaté Zdislavy", "description": "Zřizovatel: Soukromý vlastník - VAMED MEDITERRA a.s.\nPočet lůžek: 93 \nPočet lékařů: / \nPočet sester: / \nPočet hospitalizací: / \nPočet ambulantních vyšetření: /", "group": 3135952126, "url": "https://or.justice.cz/ias/ui/rejstrik-firma.vysledky?subjektId=584429&typ=UPLNY", "marker-color": "#3cc954", "marker-symbol": "hotel"}}, {"type": "Feature", "id": 464954003, "geometry": {"type": "Point", "coordinates": [15.362908, 49.539665]}, "properties": {"title": "Nemocnice Humpolec, 5. května 319, 396 01 Humpolec, Czech Republic", "description": "Zřizovatel: Soukromý vlastník, MEDIRECO a.s.\nPočet lůžek: 104\nPočet lékařů: /\nPočet sester: /\nPočet hospitalizací: / \nPočet ambulantních vyšetření: /", "group": 3135952126, "marker-color": "#3cc954"}}, {"type": "Feature", "id": 1171684630, "geometry": {"type": "Point", "coordinates": [15.15903, 50.729815]}, "properties": {"title": "Nemocnice Jablonec nad Nisou, Nemocniční 4446/15, 466 01 Jablonec nad Nisou, Czechia", "description": "Zřizovatel: obec \nPočet lůžek: 377 \nPočet lékařů: 146 \nPočet sester: 312 \nPočet hospitalizací: 17199 \nPočet ambulantních vyšetření: 224968", "group": 3650692710, "url": "https://or.justice.cz/ias/ui/rejstrik-firma.vysledky?subjektId=22647&typ=UPLNY", "marker-color": "#1b8893", "marker-symbol": "hotel"}}, {"type": "Feature", "id": 1212478127, "geometry": {"type": "Point", "coordinates": [15.301632, 50.740166]}, "properties": {"title": "Nemocnice Tanvald, Pod Špičákem, 468 41 Tanvald, Czechia", "description": "Zřizovatel: soukromý vlastník - VAMED MEDITERRA a.s.\nPočet lůžek: / \nPočet lékařů: / \nPočet sester: / \nPočet hospitalizací: / \nPočet ambulantních vyšetření: /", "group": 3650692710, "url": "https://or.justice.cz/ias/ui/rejstrik-firma.vysledky?subjektId=695207&typ=UPLNY", "marker-color": "#1b8893", "marker-symbol": "hotel"}}, {"type": "Feature", "id": 2064669067, "geometry": {"type": "Point", "coordinates": [15.06464, 50.77009]}, "properties": {"title": "Krajská nemocnice Liberec, Husova, 461 17 Liberec, Czechia", "description": "Zřizovatel: kraj \nPočet lůžek: 950 \nPočet lékařů: 337 \nPočet sester: 746 \nPočet hospitalizací: 37566 \nPočet ambulantních vyšetření: /", "group": 3650692710, "url": "https://or.justice.cz/ias/ui/rejstrik-firma.vysledky?subjektId=708998&typ=UPLNY", "marker-color": "#1b8893", "marker-symbol": "hotel"}}, {"type": "Feature", "id": 1840426937, "geometry": {"type": "Point", "coordinates": [15.498955, 50.611301]}, "properties": {"title": "Masarykova městská nemocnice v Jilemnici, Metyšova 465, 514 01 Jilemnice, Czechia", "description": "Zřizovatel: obec \nPočet lůžek: 180 \nPočet lékařů: 73 \nPočet sester: 216 \nPočet hospitalizací: 8991\nPočet ambulantních vyšetření: /", "group": 3650692710, "marker-color": "#1b8893", "marker-symbol": "hotel"}}, {"type": "Feature", "id": 3394152135, "geometry": {"type": "Point", "coordinates": [15.353081, 50.597868]}, "properties": {"title": "Nemocnice Semily, 3. května, 512 01 Semily, Czechia", "description": "Zřizovatel: obec \nPočet lůžek: 119 \nPočet lékařů: 31 \nPočet sester: 85 \nPočet hospitalizací: 3244 \nPočet ambulantních vyšetření: 55027", "group": 3650692710, "url": "https://or.justice.cz/ias/ui/rejstrik-firma.vysledky?subjektId=947045&typ=UPLNY", "marker-color": "#1b8893", "marker-symbol": "hotel"}}, {"type": "Feature", "id": 2488742467, "geometry": {"type": "Point", "coordinates": [15.16987, 50.58906]}, "properties": {"title": "Panochova nemocnice Turnov, 28. října, 511 01 Turnov, Czechia", "description": "Zřizovatel: kraj \nPočet lůžek: 176 \nPočet lékařů: 38 \nPočet sester: 111 \nPočet hospitalizací: 6583 \nPočet ambulantních vyšetření: /", "group": 3650692710, "marker-color": "#1b8893", "marker-symbol": "hotel"}}, {"type": "Feature", "id": 3049873578, "geometry": {"type": "Point", "coordinates": [14.549693, 50.685412]}, "properties": {"title": "Nemocnice s poliklinikou Česká Lípa, Liberecká, 470 06 Česká Lípa, Czechia", "description": "Zřizovatel: kraj \nPočet lůžek: 488 \nPočet lékařů: 121 \nPočet sester: 411 \nPočet hospitalizací: 18385 \nPočet ambulantních vyšetření: 269473", "group": 3650692710, "url": "https://or.justice.cz/ias/ui/rejstrik-firma.vysledky?subjektId=234985&typ=UPLNY", "marker-color": "#1b8893", "marker-symbol": "hotel"}}, {"type": "Feature", "id": 4130833931, "geometry": {"type": "Point", "coordinates": [15.088002, 50.926539]}, "properties": {"title": "Nemocnice Frýdlant, V Úvoze, 464 01 Frýdlant, Czechia", "description": "Zřizovatel: kraj \nPočet lůžek: 126 \nPočet lékařů: / \nPočet sester: / \nPočet hospitalizací: / \nPočet ambulantních vyšetření: /", "group": 3650692710, "url": "https://or.justice.cz/ias/ui/rejstrik-firma.vysledky?subjektId=654295&typ=UPLNY", "marker-color": "#1b8893", "marker-symbol": "hotel"}}, {"type": "Feature", "id": 1886810693, "geometry": {"type": "Point", "coordinates": [14.226296, 50.781692]}, "properties": {"title": "Nemocnice Děčín, U Nemocnice, 405 02 Děčín, Czechia", "description": "Zřizovatel: kraj \nPočet lůžek: 308 \nPočet lékařů: 98 \nPočet sester: 255 \nPočet hospitalizací: 13662 \nPočet ambulantních vyšetření: 176252", "group": 1032119212, "url": "https://or.justice.cz/ias/ui/rejstrik-firma.vysledky?subjektId=27885&typ=UPLNY", "marker-color": "#f1ae29", "marker-symbol": "hotel"}}, {"type": "Feature", "id": 2563555583, "geometry": {"type": "Point", "coordinates": [13.40983, 50.453467]}, "properties": {"title": "Nemocnice Chomutov, Edisonova, 430 01 Chomutov, Czechia", "description": "Zřizovatel: kraj \nPočet lůžek: 377 \nPočet lékařů: 125 \nPočet sester: 376 \nPočet hospitalizací: 14402 \nPočet ambulantních vyšetření: 186587", "group": 1032119212, "url": "https://or.justice.cz/ias/ui/rejstrik-firma.vysledky?subjektId=27885&typ=UPLNY", "marker-color": "#f1ae29", "marker-symbol": "hotel"}}, {"type": "Feature", "id": 4252040646, "geometry": {"type": "Point", "coordinates": [13.270219, 50.391444]}, "properties": {"title": "Nemocnice Kadaň, Golovinova, 432 01 Kadaň, Czechia", "description": "Zřizovatel: obec \nPočet lůžek: 230 \nPočet lékařů: 50 \nPočet sester: 137 \nPočet hospitalizací: 9960 \nPočet ambulantních vyšetření: 87661", "group": 1032119212, "url": "https://or.justice.cz/ias/ui/rejstrik-firma.vysledky?subjektId=709235&typ=UPLNY", "marker-color": "#f1ae29", "marker-symbol": "hotel"}}, {"type": "Feature", "id": 4676738, "geometry": {"type": "Point", "coordinates": [14.144623, 50.540734]}, "properties": {"title": "Nemocnice Litoměřice, Žitenická 2084, 412 01 Litoměřice, Czechia", "description": "Zřizovatel: obec \nPočet lůžek: 560 \nPočet lékařů: 103 \nPočet sester: 335 \nPočet hospitalizací: 21054 \nPočet ambulantních vyšetření: 274343", "group": 1032119212, "url": "https://or.justice.cz/ias/ui/rejstrik-firma.vysledky?subjektId=977623&typ=UPLNY", "marker-color": "#f1ae29", "marker-symbol": "hotel"}}, {"type": "Feature", "id": 896055322, "geometry": {"type": "Point", "coordinates": [14.247776, 50.423124]}, "properties": {"title": "Podřipská nemocnice s poliklinikou, Alej 17. listopadu, 413 01 Roudnice n. Lab., Czechia", "description": "Zřizovatel: soukromý vlastník - majoritní akcionář Ing. Jakub Zavoral, Ph.D.\nPočet lůžek: 241 \nPočet lékařů: / \nPočet sester: / \nPočet hospitalizací: / \nPočet ambulantních vyšetření: /", "group": 1032119212, "url": "https://or.justice.cz/ias/ui/rejstrik-firma.vysledky?subjektId=8028&typ=UPLNY", "marker-color": "#f1ae29", "marker-symbol": "hotel"}}, {"type": "Feature", "id": 872064863, "geometry": {"type": "Point", "coordinates": [13.808433, 50.350482]}, "properties": {"title": "Nemocnice Louny, Pod Nemocnicí, 440 01 Louny, Czechia", "description": "Zřizovatel: soukromý vlastník - AGEL a.s.\nPočet lůžek: / \nPočet lékařů: / \nPočet sester: /\nPočet hospitalizací: / \nPočet ambulantních vyšetření: /", "group": 1032119212, "url": "https://or.justice.cz/ias/ui/rejstrik-firma.vysledky?subjektId=632513&typ=UPLNY", "marker-color": "#f1ae29", "marker-symbol": "hotel"}}, {"type": "Feature", "id": 1888090987, "geometry": {"type": "Point", "coordinates": [13.537866, 50.319522]}, "properties": {"title": "Nemocnice Žatec, Husova, 438 01 Žatec, Czechia", "description": "Zřizovatel: obec \nPočet lůžek: 191 \nPočet lékařů: / \nPočet sester: / \nPočet hospitalizací: / \nPočet ambulantních vyšetření: /", "group": 1032119212, "url": "https://or.justice.cz/ias/ui/rejstrik-firma.vysledky?subjektId=501867&typ=UPLNY", "marker-color": "#f1ae29", "marker-symbol": "hotel"}}, {"type": "Feature", "id": 2872296569, "geometry": {"type": "Point", "coordinates": [13.629273, 50.50562]}, "properties": {"title": "Nemocnice Most, J. E. Purkyně, 435 02 Most, Czechia", "description": "Zřizovatel: kraj \nPočet lůžek: 641 \nPočet lékařů: 176 \nPočet sester: 524 \nPočet hospitalizací: 23321 \nPočet ambulantních vyšetření: 358988", "group": 1032119212, "url": "https://or.justice.cz/ias/ui/rejstrik-firma.vysledky?subjektId=27885&typ=UPLNY", "marker-color": "#f1ae29", "marker-symbol": "hotel"}}, {"type": "Feature", "id": 1644126947, "geometry": {"type": "Point", "coordinates": [13.78446, 50.54123]}, "properties": {"title": "Hornická nemocnice s poliklinikou, 257, 418 01 Bílina, Czechia", "description": "Zřizovatel: obec \nPočet lůžek: / \nPočet lékařů: / \nPočet sester: / \nPočet hospitalizací: / \nPočet ambulantních vyšetření: /", "group": 1032119212, "url": "https://or.justice.cz/ias/ui/rejstrik-firma.vysledky?subjektId=703087&typ=UPLNY", "marker-color": "#f1ae29", "marker-symbol": "hotel"}}, {"type": "Feature", "id": 3911316195, "geometry": {"type": "Point", "coordinates": [13.810183, 50.635806]}, "properties": {"title": "Nemocnice Teplice, Anglická, 415 03 Teplice, Czechia", "description": "Zřizovatel: kraj \nPočet lůžek: 478 \nPočet lékařů: 142 \nPočet sester: 398 \nPočet hospitalizací: 17810 \nPočet ambulantních vyšetření: 284473", "group": 1032119212, "url": "https://or.justice.cz/ias/ui/rejstrik-firma.vysledky?subjektId=27885&typ=UPLNY", "marker-color": "#f1ae29", "marker-symbol": "hotel"}}, {"type": "Feature", "id": 1827812979, "geometry": {"type": "Point", "coordinates": [13.741893, 50.609628]}, "properties": {"title": "Duchcov - Městská nemocnice, Osecká, 419 01 Duchcov, Czechia", "description": "Zřizovatel: soukromý vlastník - Duchcovská zdravotní s.r.o.\nPočet lůžek: / \nPočet lékařů: / \nPočet sester: / \nPočet hospitalizací: / \nPočet ambulantních vyšetření: /", "group": 1032119212, "url": "https://or.justice.cz/ias/ui/rejstrik-firma.vysledky?subjektId=690196&typ=UPLNY", "marker-color": "#f1ae29", "marker-symbol": "hotel"}}, {"type": "Feature", "id": 4143341545, "geometry": {"type": "Point", "coordinates": [14.01912, 50.680256]}, "properties": {"title": "Masarykova nemocnice, Na Kabátě, 403 40 Ústí nad Labem, Czechia", "description": "Zřizovatel: kraj\nPočet lůžek: 1106 \nPočet lékařů: 423 \nPočet sester: 1063 \nPočet hospitalizací: 40549 \nPočet ambulantních vyšetření: /", "group": 1032119212, "url": "https://or.justice.cz/ias/ui/rejstrik-firma.vysledky?subjektId=27885&typ=UPLNY", "marker-color": "#f1ae29", "marker-symbol": "hotel"}}, {"type": "Feature", "id": 3383300705, "geometry": {"type": "Point", "coordinates": [14.611751, 50.893781]}, "properties": {"title": "Nemocnice Varnsdorf, Karlova 2280, 407 47 Varnsdorf, Czechia", "description": "Zřizovatel: obec \nPočet lůžek: / \nPočet lékařů: / \nPočet sester: / \nPočet hospitalizací: / \nPočet ambulantních vyšetření: /", "group": 1032119212, "marker-color": "#f1ae29", "marker-symbol": "hotel"}}, {"type": "Feature", "id": 2591124377, "geometry": {"type": "Point", "coordinates": [14.54747, 50.948712]}, "properties": {"title": "Lužická nemocnice a poliklinika, U nemocnice 1298/6, 408 01 Rumburk, Czechia", "description": "Zřizovatel: obec\nPočet lůžek: / \nPočet lékařů: 28 \nPočet sester: 83 \nPočet hospitalizací: 5850 \nPočet ambulantních vyšetření: 32927", "group": 1032119212, "url": "https://or.justice.cz/ias/ui/rejstrik-firma.vysledky?subjektId=40963&typ=UPLNY", "marker-color": "#f1ae29", "marker-symbol": "hotel"}}, {"type": "Feature", "id": 2763601507, "geometry": {"type": "Point", "coordinates": [14.484894, 50.347508]}, "properties": {"title": "Nemocnice Mělník, Pražská, 276 01 Mělník, Czechia", "description": "Zřizovatel: Soukromý vlastník - VAMED MEDITERRA a.s.\nPočet lůžek: 351 \nPočet lékařů: / \nPočet sester: / \nPočet hospitalizací: 15611 \nPočet ambulantních vyšetření: 220869", "group": 1987940417, "url": "https://or.justice.cz/ias/ui/rejstrik-firma.vysledky?subjektId=448823&typ=UPLNY", "marker-color": "#fb6033", "marker-symbol": "hotel"}}, {"type": "Feature", "id": 1529781908, "geometry": {"type": "Point", "coordinates": [14.510434, 50.258731]}, "properties": {"title": "Městská nemocnice Neratovice - Almeda, a.s., Alšova 462, 277 11 Nerátky, Czechia", "description": "Zřizovatel: Soukromý vlastník - VAMED MEDITERRA a.s.\nPočet lůžek: / \nPočet lékařů: / \nPočet sester: / \nPočet hospitalizací: 4 655\nPočet ambulantních vyšetření: 58003", "group": 1987940417, "url": "https://or.justice.cz/ias/ui/rejstrik-firma.vysledky?subjektId=679031&typ=UPLNY", "marker-color": "#fb6033", "marker-symbol": "hotel"}}, {"type": "Feature", "id": 2680047937, "geometry": {"type": "Point", "coordinates": [14.910743, 50.418134]}, "properties": {"title": "Klaudiánova nemocnice, Laurinova, 293 60 Mladá Boleslav, Czechia", "description": "Zřizovatel: Kraj \nPočet lůžek: 618 \nPočet lékařů: / \nPočet sester: / \nPočet hospitalizací: 11708 \nPočet ambulantních vyšetření: 396 049", "group": 1987940417, "url": "https://or.justice.cz/ias/ui/rejstrik-firma.vysledky?subjektId=685088&typ=UPLNY", "marker-color": "#fb6033", "marker-symbol": "hotel"}}, {"type": "Feature", "id": 3113165642, "geometry": {"type": "Point", "coordinates": [15.2878, 50.2048]}, "properties": {"title": "Městská nemocnice Městec Králové, Prezidenta Beneše, 289 03 Městec Králové, Czechia", "description": "Zřizovatel: Obec \nPočet lůžek: 207 \nPočet lékařů: / \nPočet sester: / \nPočet hospitalizací: / \nPočet ambulantních vyšetření: /", "group": 1987940417, "url": "https://or.justice.cz/ias/ui/rejstrik-firma.vysledky?subjektId=686184&typ=UPLNY", "marker-color": "#fb6033", "marker-symbol": "hotel"}}, {"type": "Feature", "id": 2903970236, "geometry": {"type": "Point", "coordinates": [15.03704, 50.187098]}, "properties": {"title": "Nemocnice Nymburk, Velké Valy, 288 40 Nymburk, Czechia", "description": "Zřizovatel: Obec \nPočet lůžek: 201 \nPočet lékařů: / \nPočet sester: / \nPočet hospitalizací: / \nPočet ambulantních vyšetření: /", "group": 1987940417, "url": "https://or.justice.cz/ias/ui/rejstrik-firma.vysledky?subjektId=296469&typ=UPLNY", "marker-color": "#fb6033", "marker-symbol": "hotel"}}, {"type": "Feature", "id": 3833475827, "geometry": {"type": "Point", "coordinates": [14.651967, 50.18772]}, "properties": {"title": "Nemocnice Brandýs nad Labem, Brázdimská, 250 01 Brandýs n.L. - M. Boleslav, Czechia", "description": "Zřizovatel: Soukromý vlastník - Ivana Švikovská (prostřednictvím CLEAR'S GROUP a.s.)\nPočet lůžek: 144\nPočet lékařů: / \nPočet sester: / \nPočet hospitalizací: / \nPočet ambulantních vyšetření: /", "group": 1987940417, "url": "https://or.justice.cz/ias/ui/rejstrik-firma.vysledky?subjektId=343186&typ=UPLNY", "marker-color": "#fb6033", "marker-symbol": "hotel"}}, {"type": "Feature", "id": 765542553, "geometry": {"type": "Point", "coordinates": [14.426292, 49.658956]}, "properties": {"title": "Nemocnice Sedlčany, Tyršova 161, 264 01 Sedlčany, Czechia", "description": "Zřizovatel: Soukromý vlastník - VAMED MEDITERRA a.s.\nPočet lůžek: /\nPočet lékařů: / \nPočet sester: / \nPočet hospitalizací: / \nPočet ambulantních vyšetření: /", "group": 1987940417, "url": "https://or.justice.cz/ias/ui/rejstrik-firma.vysledky?subjektId=97402&typ=UPLNY", "marker-color": "#fb6033", "marker-symbol": "hotel"}}, {"type": "Feature", "id": 3703048170, "geometry": {"type": "Point", "coordinates": [14.009917, 49.692498]}, "properties": {"title": "Oblastní nemocnice Příbram, Charvátova, 261 01 Příbram, Czechia", "description": "Zřizovatel: Kraj \nPočet lůžek: 716 \nPočet lékařů: / \nPočet sester: / \nPočet hospitalizací: 33142 \nPočet ambulantních vyšetření: 318711", "group": 1987940417, "url": "https://or.justice.cz/ias/ui/rejstrik-firma.vysledky?subjektId=157652&typ=UPLNY", "marker-color": "#fb6033", "marker-symbol": "hotel"}}, {"type": "Feature", "id": 1264662565, "geometry": {"type": "Point", "coordinates": [14.674839, 49.995951]}, "properties": {"title": "Nemocnice Říčany, Smiřických 315/26, 251 01 Říčany, Czechia", "description": "Zřizovatel: Soukromý vlastník - AGEL a.s.\nPočet lůžek: /\nPočet lékařů: / \nPočet sester: / \nPočet hospitalizací: / \nPočet ambulantních vyšetření: /", "group": 1987940417, "url": "https://or.justice.cz/ias/ui/rejstrik-firma.vysledky?subjektId=316999&typ=UPLNY", "marker-color": "#fb6033", "marker-symbol": "hotel"}}, {"type": "Feature", "id": 3814373057, "geometry": {"type": "Point", "coordinates": [13.716475, 50.108034]}, "properties": {"title": "Nemocnice Rakovník, Dukel. hrdinů, 269 01 Rakovník, Czechia", "description": "Zřizovatel: Soukromý vlastník - PRIVAMED a.s.\nPočet lůžek: 286 \nPočet lékařů: / \nPočet sester: / \nPočet hospitalizací: 8 778 \nPočet ambulantních vyšetření: /", "group": 1987940417, "url": "https://or.justice.cz/ias/ui/rejstrik-firma.vysledky?subjektId=111974&typ=UPLNY", "marker-color": "#fb6033", "marker-symbol": "hotel"}}, {"type": "Feature", "id": 1040670016, "geometry": {"type": "Point", "coordinates": [14.31274, 50.242827]}, "properties": {"title": "Nemocnice Kralupy nad Vltavou, Mostní 934, 278 01 Kralupy n. Vlt., Czechia", "description": "Zřizovatel: Soukromý vlastník - Vladimír Matoušek (prostřednictvím RHG, spol. s.r.o.)\nPočet lůžek: / \nPočet lékařů: / \nPočet sester: / \nPočet hospitalizací: / \nPočet ambulantních vyšetření: /", "group": 1987940417, "url": "https://or.justice.cz/ias/ui/rejstrik-firma.vysledky?subjektId=459440&typ=UPLNY", "marker-color": "#fb6033", "marker-symbol": "hotel"}}, {"type": "Feature", "id": 3006520314, "geometry": {"type": "Point", "coordinates": [14.395787, 50.157337]}, "properties": {"title": "Městská nemocnice v Roztokách, Tiché údolí, 252 63 Roztoky, Czechia", "description": "Zřizovatel: Soukromý vlastník - Vladimír Matoušek (prostřednictvím RHG, spol. s.r.o.)\nPočet lůžek: /\nPočet lékařů: / \nPočet sester: / \nPočet hospitalizací: / \nPočet ambulantních vyšetření: /", "group": 1987940417, "url": "https://or.justice.cz/ias/ui/rejstrik-firma.vysledky?subjektId=459440&typ=UPLNY", "marker-color": "#fb6033", "marker-symbol": "hotel"}}, {"type": "Feature", "id": 2507712857, "geometry": {"type": "Point", "coordinates": [15.253288, 49.945963]}, "properties": {"title": "Nemocnice Kutná Hora, Vojtěšská, 284 01 Kutná Hora, Czechia", "description": "Zřizovatel: Kraj \nPočet lůžek: 89 \nPočet lékařů: 31 \nPočet sester: 111 \nPočet hospitalizací: 3605 \nPočet ambulantních vyšetření: 38917", "group": 1987940417, "marker-color": "#fb6033", "marker-symbol": "hotel"}}, {"type": "Feature", "id": 1896947040, "geometry": {"type": "Point", "coordinates": [15.196873, 50.019127]}, "properties": {"title": "Oblastní nemocnice Kolín, a.s., Žižkova 146, 280 02 Kolín, Czechia", "description": "Zřizovatel: Kraj \nPočet lůžek: 541 \nPočet lékařů: 201 \nPočet sester: 566 \nPočet hospitalizací: 28296 \nPočet ambulantních vyšetření: 451372", "group": 1987940417, "url": "https://or.justice.cz/ias/ui/rejstrik-firma.vysledky?subjektId=685089&typ=UPLNY", "marker-color": "#fb6033", "marker-symbol": "hotel"}}, {"type": "Feature", "id": 992789214, "geometry": {"type": "Point", "coordinates": [14.67995, 49.787874]}, "properties": {"title": "Nemocnice Rudolfa a Stefanie Benešov, K Nemocnici, 256 01 Benešov, Czechia", "description": "Zřizovatel: Kraj \nPočet lůžek: 451 \nPočet lékařů: 124 \nPočet sester: 491 \nPočet hospitalizací: / \nPočet ambulantních vyšetření: /", "group": 1987940417, "url": "https://or.justice.cz/ias/ui/rejstrik-firma.vysledky?subjektId=432793&typ=UPLNY", "marker-color": "#fb6033", "marker-symbol": "hotel"}}, {"type": "Feature", "id": 2718319774, "geometry": {"type": "Point", "coordinates": [14.088396, 50.140685]}, "properties": {"title": "Oblastní nemocnice Kladno, U nemocnice, 272 01 Kladno, Czechia", "description": "Zřizovatel: Kraj \nPočet lůžek: 600 \nPočet lékařů: / \nPočet sester: / \nPočet hospitalizací: / \nPočet ambulantních vyšetření: /", "group": 1987940417, "url": "https://or.justice.cz/ias/ui/rejstrik-firma.vysledky?subjektId=685077&typ=UPLNY", "marker-color": "#fb6033", "marker-symbol": "hotel"}}, {"type": "Feature", "id": 4259782040, "geometry": {"type": "Point", "coordinates": [14.083972, 50.234461]}, "properties": {"title": "Nemocnice Slaný, Politických vězňů 576, 274 01 Slaný, Czechia", "description": "Zřizovatel: Obec \nPočet lůžek: 314 \nPočet lékařů: / \nPočet sester: / \nPočet hospitalizací: / \nPočet ambulantních vyšetření: /", "group": 1987940417, "url": "https://or.justice.cz/ias/ui/rejstrik-firma.vysledky?subjektId=688655&typ=UPLNY", "marker-color": "#fb6033", "marker-symbol": "hotel"}}, {"type": "Feature", "id": 198755855, "geometry": {"type": "Point", "coordinates": [13.9156, 49.840634]}, "properties": {"title": "Nemocnice Hořovice, K Nemocnici 1106/14, 268 01 Hořovice, Czechia", "description": "Zřizovatel: Soukromý vlastník \nPočet lůžek: / \nPočet lékařů: /\nPočet sester: / \nPočet hospitalizací: 19029 \nPočet ambulantních vyšetření: 575035", "group": 1987940417, "url": "https://or.justice.cz/ias/ui/rejstrik-firma.vysledky?subjektId=690404&typ=UPLNY", "marker-color": "#fb6033", "marker-symbol": "hotel"}}, {"type": "Feature", "id": 1981787673, "geometry": {"type": "Point", "coordinates": [15.40156, 49.903995]}, "properties": {"title": "Městská nemocnice Čáslav, Jeníkovská, 286 01 Čáslav, Czechia", "description": "Zřizovatel: Obec \nPočet lůžek: / \nPočet lékařů: / \nPočet sester: / \nPočet hospitalizací: / \nPočet ambulantních vyšetření: /", "group": 1987940417, "url": "https://or.justice.cz/ias/ui/rejstrik-firma.vysledky?subjektId=1042288&typ=UPLNY", "marker-color": "#fb6033", "marker-symbol": "hotel"}}], "groups": [{"title": "Hlavní město Praha", "id": 1020388458}, {"title": "Jihomoravský kraj", "id": 2451465079}, {"title": "Olomoucký kraj", "id": 465184557}, {"title": "Plzeňský kraj", "id": 3591367076}, {"title": "Karlovarský kraj", "id": 3640402910}, {"title": "Královehradecký kraj", "id": 4105445865}, {"title": "Moravskoslezský kraj", "id": 2744332045}, {"title": "Jihočeský kraj", "id": 1652591349}, {"title": "Zlínský kraj", "id": 2799177597}, {"title": "Vysočina", "id": 3135952126}, {"title": "Liberecký kraj", "id": 3650692710}, {"title": "Ústecký kraj", "id": 1032119212}, {"title": "Středočeský kraj", "id": 1987940417}], "markers": [], "properties": {}}